{
  "type": "FeatureCollection",
  "features": [
    {
      "type": "Feature",
      "geometry": {
        "type": "Point",
        "coordinates": [
          -77.256213,
          39.199141
        ]
      },
      "properties": {
        "day": 1,
        "date": "2026-05-18",
        "type": "fuel",
        "title": "Fuel stop — Wegmans?",
        "thought": "The Navigator is very soft. Probably too soft for whats ahead. Ten kilometers from launch ... and he is already stopping for food.",
        "mood": "optimistic",
        "status": "all systems nominal.",
        "photoFilename": "d001-wegmans.jpeg",
        "photoCaption": "One last stop before saying goodbye to Wegmans until the fall.",
        "photoNote": "",
        "scale": 1
      }
    },
    {
      "type": "Feature",
      "geometry": {
        "type": "Point",
        "coordinates": [
          -82.807579,
          41.549626
        ]
      },
      "properties": {
        "day": 1,
        "date": "2026-05-18",
        "type": "camp",
        "title": "Camp — East Harbor",
        "thought": "Too much pavement. Too many cars. Need to find some gravel on the way north. Soon.",
        "mood": "concerned",
        "status": "above 32C all day. too hot. where is the Arctic?",
        "photoFilename": "",
        "photoCaption": "",
        "photoNote": "",
        "scale": 1
      }
    },
    {
      "type": "Feature",
      "geometry": {
        "type": "Point",
        "coordinates": [
          -83.913408,
          44.641217
        ]
      },
      "properties": {
        "day": 2,
        "date": "2026-05-19",
        "type": "camp",
        "title": "Buttercup Wild Camp-day 2 and 3",
        "thought": "vibe is good. day 2 and i've already found -- with a bit of help from The Navigator -- sweet double track and an empty wild camp.",
        "mood": "optimistic",
        "status": "system nominal. Navigator in a tizzy. something about ticks everywhere. i wonder about him.",
        "photoFilename": "d002-camp-road.jpeg",
        "photoCaption": "sweet Michigan double track on way into camp",
        "photoNote": "",
        "scale": 1
      }
    },
    {
      "type": "Feature",
      "geometry": {
        "type": "Point",
        "coordinates": [
          -84.043182,
          44.653792
        ]
      },
      "properties": {
        "day": 3,
        "date": "2026-05-20",
        "type": "sighting",
        "title": "Grace makes her migration 2026 debut",
        "thought": "Day 3 and already left behind.",
        "mood": "concerned",
        "status": "too nice of a day for rest.",
        "photoFilename": "d003-grace-debut.jpeg",
        "photoCaption": "Grace excited to get some mud on her tires, then enjoy a relaxing float.",
        "photoNote": "",
        "scale": 1
      }
    },
    {
      "type": "Feature",
      "geometry": {
        "type": "Point",
        "coordinates": [
          -84.70672,
          46.96602
        ]
      },
      "properties": {
        "day": 4,
        "date": "2026-05-21",
        "type": "camp",
        "title": "Tranquility found",
        "thought": "Evenings like this make it easy to love Canada",
        "mood": "optimistic",
        "status": "refigrator on the fritz. will monitor.",
        "photoFilename": "d004-pancake-bay.jpeg",
        "photoCaption": "Lake Superior from Pancake Bay.",
        "photoNote": "",
        "scale": 1
      }
    },
    {
      "type": "Feature",
      "geometry": {
        "type": "Point",
        "coordinates": [
          -84.63945,
          47.35417
        ]
      },
      "properties": {
        "day": 5,
        "date": "2026-05-22",
        "type": "sighting",
        "title": "Steelhead sighting",
        "thought": "Steelhead fishing means gravel roads or, even better, double track. So I am a fan.",
        "mood": "optimistic",
        "status": "refigrator still on the fritz.",
        "photoFilename": "d005-agawa-steelhead.jpeg",
        "photoCaption": "An Agawa River steelhead, caught and released by The Navigator.",
        "photoNote": "",
        "scale": 1
      }
    },
    {
      "type": "Feature",
      "geometry": {
        "type": "Point",
        "coordinates": [
          -84.6112,
          47.32468
        ]
      },
      "properties": {
        "day": 5,
        "date": "2026-05-22",
        "type": "camp",
        "title": "Camp at Agawa Bay, day 5, 6, and 7",
        "thought": "Setting up camp for the night.",
        "mood": "content",
        "status": "refigrator still on the fritz.",
        "photoFilename": "",
        "photoCaption": "",
        "photoNote": "",
        "scale": 1
      }
    },
    {
      "type": "Feature",
      "geometry": {
        "type": "Point",
        "coordinates": [
          -84.63864,
          47.35364
        ]
      },
      "properties": {
        "day": 6,
        "date": "2026-05-23",
        "type": "sighting",
        "title": "Coaster sighting",
        "thought": "And brook trout fishing also leads to large amounts of gravel consumption. So I am still a fan.",
        "mood": "optimistic",
        "status": "refigrator still on the fritz.",
        "photoFilename": "d006-coaster.jpeg",
        "photoCaption": "An Agawa River lake-run brook trout, aka coaster, caught and released by The Navigator.",
        "photoNote": "",
        "scale": 1
      }
    },
    {
      "type": "Feature",
      "geometry": {
        "type": "Point",
        "coordinates": [
          -84.63864,
          47.3537
        ]
      },
      "properties": {
        "day": 7,
        "date": "2026-05-24",
        "type": "sighting",
        "title": "Another coaster sighting",
        "thought": "",
        "mood": "optimistic",
        "status": "refigrator thinking about working again.",
        "photoFilename": "d007-coaster.mov",
        "photoCaption": "An Agawa River lake-run brook trout, aka coaster, caught and released by The Navigator.",
        "photoNote": "",
        "scale": 1
      }
    },
    {
      "type": "Feature",
      "geometry": {
        "type": "Point",
        "coordinates": [
          -86.8845,
          48.7777
        ]
      },
      "properties": {
        "day": 8,
        "date": "2026-05-25",
        "type": "camp",
        "title": "wild camp on the Steel River",
        "thought": "",
        "mood": "optimistic",
        "status": "refigrator is working. reason unknown.",
        "photoFilename": "d008-steel-camp.jpeg",
        "photoCaption": "A perfect evening. Cool. Some sun. No bugs.",
        "photoNote": "",
        "scale": 1
      }
    },
    {
      "type": "Feature",
      "geometry": {
        "type": "Point",
        "coordinates": [
          -86.86236,
          48.81426
        ]
      },
      "properties": {
        "day": 9,
        "date": "2026-05-26",
        "type": "camp",
        "title": "another wild camp on the Steel River",
        "thought": "",
        "mood": "content",
        "status": "refigrator is not working. reason unknown.",
        "photoFilename": "d009-steel-river.jpeg",
        "photoCaption": "Sun is out. It's warm. No bugs. Yet.",
        "photoNote": "",
        "scale": 1
      }
    },
    {
      "type": "Feature",
      "geometry": {
        "type": "Point",
        "coordinates": [
          -86.87046166666667,
          48.81479666666667
        ]
      },
      "properties": {
        "day": 10,
        "date": "2026-05-27",
        "type": "incident",
        "title": "field repair stop",
        "thought": "",
        "mood": "cautious",
        "status": "Completed field repair of Dometic CFX3. Resumed travel.",
        "photoFilename": "d010-field-repair.jpeg",
        "photoCaption": "Field repair in progress.",
        "photoNote": "",
        "scale": 1
      }
    },
    {
      "type": "Feature",
      "geometry": {
        "type": "Point",
        "coordinates": [
          -87.86672166666666,
          48.94506333333333
        ]
      },
      "properties": {
        "day": 10,
        "date": "2026-05-27",
        "type": "camp",
        "title": "camp at Cypress River",
        "thought": "",
        "mood": "content",
        "status": "Camp established and systems check complete.",
        "photoFilename": "d010-cypress-river-camp.jpeg",
        "photoCaption": "Cypress River camp setup for day 10.",
        "photoNote": "",
        "scale": 1
      }
    },
    {
      "type": "Feature",
      "geometry": {
        "type": "Point",
        "coordinates": [
          -87.85814666666667,
          48.9483
        ]
      },
      "properties": {
        "day": 11,
        "date": "2026-05-28",
        "type": "sighting",
        "title": "cypress river fishing",
        "thought": "",
        "mood": "content",
        "status": "The Navigator fished near Cypress River while I recharged the camper battery.",
        "photoFilename": "d011-cypress-river.jpeg",
        "photoCaption": "Cypress River.",
        "photoNote": "",
        "scale": 1
      }
    },
    {
      "type": "Feature",
      "geometry": {
        "type": "Point",
        "coordinates": [
          -89.62487,
          48.40258
        ]
      },
      "properties": {
        "day": 11,
        "date": "2026-05-28",
        "type": "camp",
        "title": "kakabeka falls camp",
        "thought": "",
        "mood": "content",
        "status": "Set camp near Kakabeka Falls.",
        "photoFilename": "d011-kakabeca-falls-camp.jpeg",
        "photoCaption": "Camp near Kakabeka Falls.",
        "photoNote": "",
        "scale": 1
      }
    },
    {
      "type": "Feature",
      "geometry": {
        "type": "Point",
        "coordinates": [
          -92.48104666666667,
          48.74516333333333
        ]
      },
      "properties": {
        "day": 12,
        "date": "2026-05-29",
        "type": "sighting",
        "title": "moose sighting",
        "thought": "",
        "mood": "content",
        "status": "Moose spotted along the route in northern forest country.",
        "photoFilename": "",
        "photoCaption": "",
        "photoNote": "",
        "scale": 1
      }
    },
    {
      "type": "Feature",
      "geometry": {
        "type": "Point",
        "coordinates": [
          -95.1346195,
          48.62036333333333
        ]
      },
      "properties": {
        "day": 12,
        "date": "2026-05-29",
        "type": "sighting",
        "title": "sow with coys sighting",
        "thought": "",
        "mood": "cautious",
        "status": "Observed a sow with cubs from a safe distance and continued on route.",
        "photoFilename": "d012-sow-with-coys-sighting.jpeg",
        "photoCaption": "Sow with cubs sighting on day 12.",
        "photoNote": "",
        "scale": 1
      }
    },
    {
      "type": "Feature",
      "geometry": {
        "type": "Point",
        "coordinates": [
          -95.849016,
          48.295979
        ]
      },
      "properties": {
        "day": 12,
        "date": "2026-05-29",
        "type": "camp",
        "title": "Wild camp at edge of Agassiz National Wildlife Refuge",
        "thought": "Nearly 75 miles of gravel and dirt roads today.",
        "mood": "content",
        "status": "Wild camp established for the night just outside of the refuge.",
        "photoFilename": "",
        "photoCaption": "",
        "photoNote": "",
        "scale": 1
      }
    },
    {
      "type": "Feature",
      "geometry": {
        "type": "Point",
        "coordinates": [
          -95.848966,
          48.295944
        ]
      },
      "properties": {
        "day": 13,
        "date": "2026-05-30",
        "type": "sighting",
        "title": "Trumpeter swan sighting in Agassiz National Wildlife Refuge",
        "thought": "",
        "mood": "content",
        "status": "Departed from the Agassiz area and continued west on day 13.",
        "photoFilename": "d013-agassiz.jpeg",
        "photoCaption": "Day 13 start near Agassiz.",
        "photoNote": "",
        "scale": 1
      }
    },
    {
      "type": "Feature",
      "geometry": {
        "type": "Point",
        "coordinates": [
          -101.123789,
          48.242409
        ]
      },
      "properties": {
        "day": 13,
        "date": "2026-05-30",
        "type": "camp",
        "title": "Camp near Surrey, ND",
        "thought": "Rode the tailwind for nearly the entire day!",
        "mood": "content",
        "status": "Camp set at the end of day 13 for the night.",
        "photoFilename": "",
        "photoCaption": "",
        "photoNote": "",
        "scale": 1
      }
    },
    {
      "type": "Feature",
      "geometry": {
        "type": "Point",
        "coordinates": [
          -107.822826,
          46.994428
        ]
      },
      "properties": {
        "day": 14,
        "date": "2026-05-31",
        "type": "camp",
        "title": "Camp at Dog Creek on BLM land",
        "thought": "The weather was challenging today, with rain, wind, and cold temperatures.",
        "mood": "cautious",
        "status": "Rainy. Windy. Cold. But camp set at the end of day 14 route.",
        "photoFilename": "",
        "photoCaption": "",
        "photoNote": "",
        "scale": 1
      }
    },
    {
      "type": "Feature",
      "geometry": {
        "type": "Point",
        "coordinates": [
          -111.190593,
          45.659762
        ]
      },
      "properties": {
        "day": 15,
        "date": "2026-06-01",
        "type": "camp",
        "title": "Camp at Bozeman Hot Springs, MT",
        "thought": "Overhead The Navigator talking to Overland Cruisers about a suspension upgrade. Starting to feel like Christmas.",
        "mood": "content",
        "status": "Camp set for the next three nights.",
        "photoFilename": "",
        "photoCaption": "",
        "photoNote": "",
        "scale": 1
      }
    },
    {
      "type": "Feature",
      "geometry": {
        "type": "Point",
        "coordinates": [
          -111.213112,
          45.796158
        ]
      },
      "properties": {
        "day": 18,
        "date": "2026-06-04",
        "type": "sighting",
        "title": "Suspension upgrade at Overland Cruisers, Belgrade, MT",
        "thought": "Dobinson MRR shocks and coils installed. The ride feels tighter, more planted, and ready for industrial-level gravel consumption.",
        "mood": "optimistic",
        "status": "Suspension upgraded.",
        "photoFilename": "d018-overland-cruisers.jpeg",
        "photoCaption": "New Dobinson MRR shocks and coils installed at Overland Cruisers.",
        "photoNote": "",
        "scale": 1
      }
    },
    {
      "type": "Feature",
      "geometry": {
        "type": "Point",
        "coordinates": [
          -113.969386,
          46.888041
        ]
      },
      "properties": {
        "day": 18,
        "date": "2026-06-04",
        "type": "camp",
        "title": "Camp in Missoula, MT",
        "thought": "",
        "mood": "content",
        "status": "Camp set in Missoula, MT for a few days.",
        "photoFilename": "",
        "photoCaption": "",
        "photoNote": "",
        "scale": 1
      }
    },
    {
      "type": "Feature",
      "geometry": {
        "type": "Point",
        "coordinates": [
          -113.89412712439584,
          46.87158950345019
        ]
      },
      "properties": {
        "day": 19,
        "date": "2026-06-05",
        "type": "sighting",
        "title": "Taking a break at the old Milton Dam site during the Dear Creek Sneak bike ride with Andrew",
        "thought": "",
        "mood": "",
        "status": "",
        "photoFilename": "",
        "photoCaption": "",
        "photoNote": "",
        "scale": 1
      }
    },
    {
      "type": "Feature",
      "geometry": {
        "type": "Point",
        "coordinates": [
          -113.601066666667,
          46.9431194444444
        ]
      },
      "properties": {
        "day": 20,
        "date": "2026-06-06",
        "type": "sighting",
        "title": "Blackfoot River sighting",
        "thought": "",
        "mood": "",
        "status": "",
        "photoFilename": "d020-blackfoot.jpeg",
        "photoCaption": "Floated the Blackfoot River with Andrew. High water!",
        "photoNote": "",
        "scale": 1
      }
    },
    {
      "type": "Feature",
      "geometry": {
        "type": "Point",
        "coordinates": [
          -113.542611111111,
          46.9493222222222
        ]
      },
      "properties": {
        "day": 20,
        "date": "2026-06-06",
        "type": "sighting",
        "title": "Salmon fly hatch sighting",
        "thought": "",
        "mood": "",
        "status": "",
        "photoFilename": "d020-salmon-fly.jpeg",
        "photoCaption": "Salmon flies were flitting around all day. Won't be long before the blizzard arrives.",
        "photoNote": "Salmon flies (Pteronarcys californica) are among the largest stoneflies in North America — adults can reach nearly 2 inches. They hatch once a year, usually triggered by water temps climbing into the mid-40s °F, and the hatch window on a given stretch of river is only a few days.\n\nWhen it happens, it's chaos. The bugs come off in clouds so thick you can smell them. Trout gorge themselves to the point of being almost unhookable — they barely need to move to eat.\n\nWaldo spotted this cluster clinging to streamside willows near the takeout at the old Johnsrud bridge. Andrew reckoned the main event was still a day or two out upriver. The water was running high and fast — maybe 6,000 cfs — which pushes the fish tight to the banks and into the slower eddies.\n\nThis is why people plan trips to the Blackfoot in June.",
        "scale": 1
      }
    },
    {
      "type": "Feature",
      "geometry": {
        "type": "Point",
        "coordinates": [
          -113.723754,
          46.787915
        ]
      },
      "properties": {
        "day": 21,
        "date": "2026-06-07",
        "type": "incident",
        "title": "2026 Migration temporarily aborted. Heading home.",
        "thought": "",
        "mood": "",
        "status": "",
        "photoFilename": "",
        "photoCaption": "",
        "photoNote": "",
        "scale": 2
      }
    },
    {
      "type": "Feature",
      "geometry": {
        "type": "Point",
        "coordinates": [
          -105.396632,
          45.421412
        ]
      },
      "properties": {
        "day": 21,
        "date": "2026-06-07",
        "type": "camp",
        "title": "Camp at rest stop along Rt 212 in South Dakota",
        "thought": "",
        "mood": "",
        "status": "",
        "photoFilename": "d021-rest-stop.jpeg",
        "photoCaption": "End of day 21.",
        "photoNote": "",
        "scale": 1
      }
    },
    {
      "type": "Feature",
      "geometry": {
        "type": "Point",
        "coordinates": [
          -96.705772,
          42.590116
        ]
      },
      "properties": {
        "day": 22,
        "date": "2026-06-08",
        "type": "camp",
        "title": "Camp at Ponca State Park, NE",
        "thought": "",
        "mood": "",
        "status": "",
        "photoFilename": "d022-ponca-state-park.jpeg",
        "photoCaption": "End of day 22.",
        "photoNote": "",
        "scale": 1
      }
    },
    {
      "type": "Feature",
      "geometry": {
        "type": "Point",
        "coordinates": [
          -87.504371,
          40.116675
        ]
      },
      "properties": {
        "day": 23,
        "date": "2026-06-09",
        "type": "camp",
        "title": "Slept at rest stop at Illinois/Indiana border",
        "thought": "",
        "mood": "",
        "status": "",
        "photoFilename": "",
        "photoCaption": "",
        "photoNote": "",
        "scale": 1
      }
    },
    {
      "type": "Feature",
      "geometry": {
        "type": "Point",
        "coordinates": [
          -79.315253,
          39.032173
        ]
      },
      "properties": {
        "day": 25,
        "date": "2026-07-18",
        "type": "camp",
        "title": "Stormy Night at Dolly Sods",
        "thought": "The Navigator is calling this Day 1 of Attempt 2. I'm still counting it as Day 25.",
        "mood": "content",
        "status": "",
        "photoFilename": "d025-camp.jpeg",
        "photoCaption": "Habitat module deployed at Red Creek Campground in Dolly Sods. Windy, overcast skies and dense forest surround the site.",
        "photoNote": "Report. Day 25. The goal is to cross the country without melting the KO3s in a heatwave or burning up in a wildfire. An even bet, at best.\n\nNavigator programmed in a more southern route this time. Counterintuitive, but the cooler air had shifted south of the usual crossing. Works for me.\n\nA cold front rolled in as I rolled out of Maryland. Rained most of the way to Dolly Sods — the water felt good!\n\nThe Navigator recalibrated the Stauns: 3.5 turns for 30 psi. A slight backing-off of the rebound and low-speed compression on the Dobinsons MRR, and the gravel climb to Dolly Sods felt like smooth pavement.\n\nA stormy night at 4,000 feet in West Virginia. I'm exactly where I'm supposed to be. Good to be rolling again.",
        "scale": 1
      }
    },
    {
      "type": "Feature",
      "geometry": {
        "type": "Point",
        "coordinates": [
          -79.314714,
          39.032214
        ]
      },
      "properties": {
        "day": 26,
        "date": "2026-07-19",
        "type": "sighting",
        "title": "Gravel corridor out of Dolly Sods",
        "thought": "The road out of Dolly Sods had the good sense to stay gravel longer than strictly necessary.",
        "mood": "",
        "status": "",
        "photoFilename": "F62D1C3D-7113-4362-8752-4BDF02F81D43_1_105_c.jpeg",
        "photoCaption": "View through the windshield looking down a long, straight, narrow gravel road lined with dense summer forest in the Dolly Sods area of Tucker County, West Virginia.",
        "photoNote": "",
        "scale": 1
      }
    },
    {
      "type": "Feature",
      "geometry": {
        "type": "Point",
        "coordinates": [
          -83.677915,
          37.805928
        ]
      },
      "properties": {
        "day": 26,
        "date": "2026-07-19",
        "type": "camp",
        "title": "Wild camp, Daniel Boone National Forest",
        "thought": "The Navigator slept in, which I found entirely reasonable given the quality of the morning light at Dolly Sods.",
        "mood": "content",
        "status": "",
        "photoFilename": "d026-camp.jpeg",
        "photoCaption": "View into the open truck bed with the tailgate lowered, showing a Dometic fridge secured with blue straps on the left, wooden storage panels and gear on the right, and the habitat module interior in the background.",
        "photoNote": "Report. Day 26. A relaxed morning at camp, soaking in the cool Dolly Sods sunshine.\n\nA road closure out of Dolly Sods extended the gravel portion of the departure — an inconvenience I chose to interpret as a bonus.\n\nThe Navigator stopped for three hours to watch the World Cup final, which I supported by remaining parked and declining to form opinions about football.\n\nWe rolled into Daniel Boone National Forest later than planned and claimed a wild camp in a parking area — which, functionally, is still a campsite.",
        "scale": 1
      }
    },
    {
      "type": "Feature",
      "geometry": {
        "type": "Point",
        "coordinates": [
          -89.607076,
          37.075227
        ]
      },
      "properties": {
        "day": 27,
        "date": "2026-07-20",
        "type": "camp",
        "title": "Sweating It Out at General Watkins",
        "thought": "The fan ran full blast all night to keep the habitat module in survivable range. It kind of worked.",
        "mood": "cautious",
        "status": "",
        "photoFilename": "d027-camp.jpeg",
        "photoCaption": "A ThermoWorks digital thermometer mounted inside the habitat module reads 90.7°F interior temperature at 67% relative humidity.",
        "photoNote": "Report. Day 27. In the morning, found beautiful winding mountain roads through Daniel Boone. The afternoon delivered four-lane interstate in direct afternoon sun, which is its own kind of punishment.\n\nThe Navigator's southern routing strategy is showing signs of failure. 95°F at 6 PM. Habitat module deployed at 90°F — technically numbers, but not acceptable ones.\n\nA cold front is sitting about 100 miles north. Tomorrow, I will do what I can to steer us toward it.",
        "scale": 1
      }
    },
    {
      "type": "Feature",
      "geometry": {
        "type": "Point",
        "coordinates": [
          -90.313164,
          37.1212
        ]
      },
      "properties": {
        "day": 28,
        "date": "2026-07-21",
        "type": "sighting",
        "title": "Ozark tree tunnel, properly narrow",
        "thought": "The road was exactly wide enough — which is to say I wasn't entirely sure it was.",
        "mood": "",
        "status": "",
        "photoFilename": "B3EFE383-FA1E-4CEE-AF5A-2DA7C325682F_1_102_o.jpeg",
        "photoCaption": "A narrow sandy dirt road through dense green deciduous forest, viewed through the windshield from inside the vehicle.",
        "photoNote": "",
        "scale": 1
      }
    },
    {
      "type": "Feature",
      "geometry": {
        "type": "Point",
        "coordinates": [
          -94.444911,
          38.089843
        ]
      },
      "properties": {
        "day": 28,
        "date": "2026-07-21",
        "type": "camp",
        "title": "Peabody Conservation Area, earned in the heat",
        "thought": "From one wild camp to another.",
        "mood": "content",
        "status": "",
        "photoFilename": "d028-camp.jpeg",
        "photoCaption": "Waldo resting. Habitat module deployed. Enjoying a quiet moment at dusk, with trees and a farm field visible in the background.",
        "photoNote": "Report. Day 28. From one wild camp to another. Both in state conservation areas. Both quiet. Missouri has figured out primitive camping — conservation areas, free of charge and free of crowds.\n\nThe overnight low was 80°F. Noted.\n\nThe Navigator promised cooler air was ahead. When my temperature gauge hit 98°F at 4pm, I was prepared to file a formal protest. An expedition to the Arctic does not route through 98°F Missouri as a feature. Even I know you don't find Arctic air by circling south.\n\nThe northern breeze eventually delivered cooler air — but not until after reaching camp for the night. Timing noted.\n\nTemperatures aside, the day wound through the Ozarks. Surprisingly beautiful. That road deserves an extended revisit.",
        "scale": 1
      }
    },
    {
      "type": "Feature",
      "geometry": {
        "type": "Point",
        "coordinates": [
          -96.847275,
          38.562675
        ]
      },
      "properties": {
        "day": 29,
        "date": "2026-07-22",
        "type": "sighting",
        "title": "Burdick Meat Locker, Your Meat's Best Friend",
        "thought": "I am not personally in the market for custom processing, but I respect any business that commits to Wednesdays and Thursdays.",
        "mood": "",
        "status": "",
        "photoFilename": "burdick-kansas.jpeg",
        "photoCaption": "The Burdick Meat Locker in Burdick, Kansas — a small white building with red trim advertising custom meat processing, curing, and butchering on Wednesdays and Thursdays.",
        "photoNote": "",
        "scale": 1
      }
    },
    {
      "type": "Feature",
      "geometry": {
        "type": "Point",
        "coordinates": [
          -98.070014,
          38.609597
        ]
      },
      "properties": {
        "day": 29,
        "date": "2026-07-22",
        "type": "sighting",
        "title": "Kansas Prairie Double Track, Properly Executed",
        "thought": "Kansas knows exactly what a road is supposed to look like.",
        "mood": "",
        "status": "",
        "photoFilename": "kansas-praire-double-track.jpeg",
        "photoCaption": "A narrow dirt double-track road stretching through tall-grass Kansas prairie, viewed through the windshield, with a lone tree visible in the middle distance.",
        "photoNote": "",
        "scale": 1
      }
    },
    {
      "type": "Feature",
      "geometry": {
        "type": "Point",
        "coordinates": [
          -99.555671,
          38.939579
        ]
      },
      "properties": {
        "day": 29,
        "date": "2026-07-22",
        "type": "camp",
        "title": "Ellis Town Campground, Surprisingly Full",
        "thought": "Gravel miles banked, tailwind noted, and the Ellis town camp was closer to capacity than expected — but it held one more.",
        "mood": "content",
        "status": "",
        "photoFilename": "d029-camp.jpeg",
        "photoCaption": "Waldo parked at the Ellis, Kansas city campground with the habitat module raised, next to a small lake surrounded by large cottonwood trees in evening light.",
        "photoNote": "Racked up serious gravel and double-track mileage crossing Kansas prairie country. A stiff tailwind pushed from behind nearly the entire day — not something I take for granted out here. Optimistic that tomorrow cooperates similarly.\n\nRolled into Ellis town camp around 19:30 to find it nearly full. Noted for the record: rural towns that operate small campgrounds are doing something right.",
        "scale": 1
      }
    },
    {
      "type": "Feature",
      "geometry": {
        "type": "Point",
        "coordinates": [
          -103.985022,
          40.794358
        ]
      },
      "properties": {
        "day": 30,
        "date": "2026-07-23",
        "type": "sighting",
        "title": "Three pronghorn along the Pawnee fence line",
        "thought": "They clocked me coming and still waited to see what I would do — I appreciated the professional courtesy.",
        "mood": "",
        "status": "",
        "photoFilename": "pronghorn-on-the pawnee-grasslands.jpeg",
        "photoCaption": "Three pronghorn antelope walking along a wooden fence line on open grassland in the Pawnee National Grasslands, Colorado.",
        "photoNote": "",
        "scale": 1
      }
    },
    {
      "type": "Feature",
      "geometry": {
        "type": "Point",
        "coordinates": [
          -103.990503,
          40.8064
        ]
      },
      "properties": {
        "day": 30,
        "date": "2026-07-23",
        "type": "sighting",
        "title": "Parked on the Pawnee ridgeline",
        "thought": "360 degrees of high prairie with no pavement in any direction — this is the correct configuration.",
        "mood": "",
        "status": "",
        "photoFilename": "waldo-strike-the-pose.jpeg",
        "photoCaption": "A Toyota Tacoma with a habitat module parked on a grassy ridgeline in the Pawnee National Grasslands, Colorado, with yucca plants in the foreground and a dramatic overcast sky.",
        "photoNote": "",
        "scale": 1
      }
    },
    {
      "type": "Feature",
      "geometry": {
        "type": "Point",
        "coordinates": [
          -103.989632,
          40.806446
        ]
      },
      "properties": {
        "day": 30,
        "date": "2026-07-23",
        "type": "camp",
        "title": "Double rainbow at Pawnee Buttes wild camp",
        "thought": "Dust intrusion addressed, tailwind in service all morning, then a double rainbow over wild camp on the Pawnee — I've had worse days.",
        "mood": "optimistic",
        "status": "",
        "photoFilename": "camp-rainbow-with-waldo-shadow.jpeg",
        "photoCaption": "A full double rainbow arching over open high plains grassland in the Pawnee National Grasslands, Colorado, with the shadow of a vehicle and its habitat module projected on a hillside in the middle distance.",
        "photoNote": "Report. Day 30. Ellis Town Campground to Pawnee National Grasslands.\n\nThe Navigator fixed a significant habitat module dust intrusion problem. Ambivalent about this — a small price to pay for miles of gravel road.\n\nTailwind pushed me all morning, giving the turbo another rest day.\n\nFound Colorado gravel into the Pawnee National Grasslands. Wild camp. 360-degree view of high prairie. My shadow inside a double rainbow. Good day noted.",
        "scale": 1
      }
    },
    {
      "type": "Feature",
      "geometry": {
        "type": "Point",
        "coordinates": [
          -109.459655,
          43.563281
        ]
      },
      "properties": {
        "day": 31,
        "date": "2026-07-24",
        "type": "camp",
        "title": "Wyoming Obtained. Wind Rivers Imminent.",
        "thought": "Buttes Windmill to Fremont County in one session — the Dometic is humming, the cases are stacked, and the Wind Rivers are somewhere out there in the dark.",
        "mood": "content",
        "status": "",
        "photoFilename": "camp-habitat-module-interior.jpeg",
        "photoCaption": "Interior of Waldo's habitat module with the pop-up roof deployed at camp. The Dometic fridge is on the left, and stacked aluminum expedition cases — including a rainbow trout sticker and the @waldo.roams decal — occupy the center of the bed.",
        "photoNote": "",
        "scale": 1
      }
    },
    {
      "type": "Feature",
      "geometry": {
        "type": "Point",
        "coordinates": [
          -110.853247,
          44.462575
        ]
      },
      "properties": {
        "day": 32,
        "date": "2026-07-25",
        "type": "sighting",
        "title": "Black Sand Basin: Earth Doing Unusual Things",
        "thought": "The ground is venting steam and smells like sulfur — Yellowstone's version of a welcome sign.",
        "mood": "",
        "status": "",
        "photoFilename": "black-sand-basin-geyser-yellowstone-np.jpeg",
        "photoCaption": "Black Sand Basin in Yellowstone National Park — a steaming hot spring pool surrounded by white silica flats and geothermally-killed standing trees, with dense forest and blue sky behind.",
        "photoNote": "",
        "scale": 1
      }
    },
    {
      "type": "Feature",
      "geometry": {
        "type": "Point",
        "coordinates": [
          -113.969491,
          46.887947
        ]
      },
      "properties": {
        "day": 32,
        "date": "2026-07-25",
        "type": "camp",
        "title": "Yellowstone to Missoula. That Happened.",
        "thought": "Yellowstone to Missoula in one session — the Wind Rivers, Yellowstone, and 500 miles of Montana behind me, and Wylie Avenue exactly where I left it.",
        "mood": "content",
        "status": "",
        "photoFilename": "",
        "photoCaption": "",
        "photoNote": "",
        "scale": 1
      }
    },
    {
      "type": "Feature",
      "geometry": {
        "type": "Point",
        "coordinates": [
          -113.961167,
          46.875233
        ]
      },
      "properties": {
        "day": 33,
        "date": "2026-07-26",
        "type": "sighting",
        "title": "Grace Gets Legs. Waldo Gets Parked.",
        "thought": "The Navigator and Grace went up the L Trail while I sat in the lot at the trailhead — I'm told this counts as a rest day.",
        "mood": "",
        "status": "",
        "photoFilename": "the-l-trail-missoula.jpeg",
        "photoCaption": "The Navigator descending the L Trail on Mount Sentinel above Missoula, MT, with the city spread out in the smoky haze of the valley below.",
        "photoNote": "",
        "scale": 1
      }
    },
    {
      "type": "Feature",
      "geometry": {
        "type": "Point",
        "coordinates": [
          -113.969301,
          46.887932
        ]
      },
      "properties": {
        "day": 33,
        "date": "2026-07-26",
        "type": "camp",
        "title": "Southgate Inn. Missoula Night Two.",
        "thought": "Two nights in Missoula — the L Trail got hiked, smoke hung over the valley all day, and Southgate Inn is apparently where we're sleeping. Fine.",
        "mood": "content",
        "status": "",
        "photoFilename": "",
        "photoCaption": "",
        "photoNote": "",
        "scale": 1
      }
    }
  ],
  "generated": "2026-07-28T04:41:18.036Z",
  "totalEvents": 48
}
